SEEDS II (CO-66)        
1 32791U 08021J   26089.92126319  .00028149  00000+0  96961-3 0  9998
2 32791  97.7518  84.2520 0002163 170.1293 189.9989 15.29994258975319
YUBILEINY (RS30)        
1 32953U 08025A   26090.19560503 -.00000019  00000+0 -20819-3 0  9997
2 32953  82.5036  43.9421 0020275 119.2770 241.0340 12.43176723810003
KKS-1 (KISEKI)          
1 33499U 09002H   26090.19273596  .00002349  00000+0  29643-3 0  9992
2 33499  98.1189  11.4158 0007851 172.9338 187.1987 14.82909002924630
SWISSCUBE               
1 35932U 09051B   26090.16869357  .00001599  00000+0  32641-3 0  9991
2 35932  98.4083 356.6911 0008061  93.8124 266.3999 14.62318465877757
BEESAT-1                
1 35933U 09051C   26090.00124713  .00001289  00000+0  26921-3 0  9995
2 35933  98.4012 356.3176 0006421 105.4311 254.7599 14.61582320877766
ITUPSAT1                
1 35935U 09051E   26090.19803847  .00001218  00000+0  26199-3 0  9998
2 35935  98.4099 355.7907 0008526 115.7288 244.4793 14.60313679877358
XIWANG-1 (HOPE-1)       
1 36122U 09072B   26090.19277514 -.00000192  00000+0 -38654-3 0  9997
2 36122 100.3945  45.2977 0008065  54.0758 306.1103 13.16436659782746
O/OREOS (USA 219)       
1 37224U 10062C   26089.89991169  .00004153  00000+0  40011-3 0  9995
2 37224  71.9693 257.6242 0016048 220.8281 139.1688 14.93398682104953
JUGNU                   
1 37839U 11058B   26090.17219310  .00000534  00000+0  13906-3 0  9999
2 37839  19.9614  62.3842 0018353 294.9660 166.6002 14.13750332747977
SRMSAT                  
1 37841U 11058D   26089.91389889  .00000459  00000+0  10520-3 0  9996
2 37841  19.9707 173.2386 0011952  62.7831  90.7492 14.11555493746740
STRAND-1                
1 39090U 13009E   26089.73026744  .00000451  00000+0  16625-3 0  9994
2 39090  98.3904 271.9004 0009825 104.2930 255.9349 14.37112753685798
ZACUBE-1 (TSHEPISOSAT)  
1 39417U 13066B   26090.13748107  .00006656  00000+0  52164-3 0  9991
2 39417  97.8137  52.0652 0044733 150.1367 210.2423 15.00524904669022
GOMX-1                  
1 39430U 13066Q   26090.14246220  .00002360  00000+0  36124-3 0  9992
2 39430  97.6553 295.5092 0128521 328.7500  30.6110 14.69179740658459
CUBEBUG-2 (LO-74)       
1 39440U 13066AA  26089.80790736  .00007480  00000+0  69948-3 0  9998
2 39440  97.8841  38.5210 0056486 287.9937  71.5131 14.93197574665298
FUNCUBE-1 (AO-73)       
1 39444U 13066AE  26089.87323451  .00012964  00000+0  82495-3 0  9990
2 39444  97.8204  59.7809 0038796 109.2315 251.3116 15.08292887667859
UWE-3                   
1 39446U 13066AG  26089.86167503  .00005851  00000+0  50948-3 0  9990
2 39446  97.8621  45.4832 0048610 219.7241 140.0416 14.96395224665864
UNISAT-6                
1 40012U 14033C   26090.12887337  .00003949  00000+0  43092-3 0  9999
2 40012  97.7763 244.2836 0044492 327.1062  32.7387 14.87782241634558
DUCHIFAT-1              
1 40021U 14033M   26090.11706462  .00085172  00000+0  13735-2 0  9995
2 40021  98.0595 139.1118 0003506   9.9993 350.1326 15.52615576643592
QB50P1                  
1 40025U 14033R   26089.95310581  .00014258  00000+0  72427-3 0  9993
2 40025  98.0998  95.6803 0010418 127.1026 233.1159 15.16965707641169
LILACSAT-2              
1 40908U 15049K   26090.16397522  .00023616  00000+0  43941-3 0  9993
2 40908  97.4766 124.1422 0008068 162.0669 198.0867 15.48841114583664
FOX-1A (AO-85)          
1 40967U 15058D   26090.19821101  .00003365  00000+0  30905-3 0  9991
2 40967  64.7758 161.2593 0128377  87.2682 274.3116 14.90506999101944
CAS-2T & KS-1Q          
1 41847U 16066G   26090.17964866  .00001294  00000+0  19046-3 0  9995
2 41847  98.3855 166.7915 0342460   6.4478 354.0955 14.44526714493530
RADFXSAT (FOX-1B)       
1 43017U 17073E   26090.11635420  .00013287  00000+0  59654-3 0  9994
2 43017  97.4826 318.9635 0153132 237.6583 120.9745 15.11313434453597
DIWATA-2B               
1 43678U 18084H   26090.20194593  .00002494  00000+0  20504-3 0  9991
2 43678  98.1038 283.1227 0013690  63.5116 296.7509 15.00069938404529
ES'HAIL 2               
1 43700U 18090A   26088.19164708  .00000125  00000+0  00000+0 0  9998
2 43700   0.0175 117.5485 0001123 253.3870 270.4565  1.00274464 26875
FOX-1CLIFF (AO-95)      
1 43770U 18099N   26090.10393212  .00017625  00000+0  70804-3 0  9998
2 43770  97.4469 150.7096 0007495 258.9458 101.0937 15.24983195401313
ITASAT                  
1 43786U 18099AE  26090.13417592  .00009990  00000+0  49326-3 0  9997
2 43786  97.4126 143.2273 0011160 263.0449  96.9516 15.18024279401064
JY1SAT (JO-97)          
1 43803U 18099AX  26090.12826833  .00025740  00000+0  85630-3 0  9997
2 43803  97.4214 152.8112 0006387 174.4824 185.6489 15.31122080401673
UWE-4                   
1 43880U 18111E   26090.04288465  .00042340  00000+0  10093-2 0  9996
2 43880  97.5858  15.1280 0006158 235.4817 124.5849 15.41438448398728
TIANYAN 01              
1 44881U 19093C   26090.16060999  .00001675  00000+0  19565-3 0  9991
2 44881  97.7577 164.2864 0013273 350.0808  10.0144 14.86388645339828
RS-44 & BREEZE-KM R/B   
1 44909U 19096E   26090.13725098  .00000007  00000+0 -10264-4 0  9997
2 44909  82.5248  31.5629 0216975 327.1635  31.6135 12.79747756292366
SALSAT                  
1 46495U 20068K   26089.95080514  .00012602  00000+0  45514-3 0  9993
2 46495  97.8857  88.3248 0008983 207.2783 152.7984 15.28598580303401
XW-3 (CAS-9)            
1 50466U 21131B   26090.23361164  .00000808  00000+0  26357-3 0  9993
2 50466  98.4949 183.0636 0003628 349.5769  10.5344 14.41278748223881
GREENCUBE (IO-117)      
1 53109U 22080E   26088.03154629 -.00000003  00000+0  00000+0 0  9996
2 53109  70.1557 326.1322 0009006 307.1724  52.8113  6.42583202 86919
UMKA 1 (RS40S)          
1 57172U 23091G   26090.16836441  .00008831  00000+0  41310-3 0  9998
2 57172  97.5138 149.1861 0013750  38.3878 321.8333 15.19914057152159
CUBESX-HSE 3 (RS42S)    
1 57178U 23091N   26090.16146690  .00018632  00000+0  65710-3 0  9994
2 57178  97.5169 154.8536 0011056  17.2822 342.8792 15.29254577152497
MONITOR-3 (RS58S)       
1 57180U 23091Q   26090.15498146  .00015178  00000+0  58651-3 0  9990
2 57180  97.5164 153.0933 0012196  22.7588 337.4188 15.26271584152384
MONITOR-4 (RS57S)       
1 57182U 23091S   26090.13887378  .00015319  00000+0  59034-3 0  9992
2 57182  97.5157 153.0432 0012162  23.0943 337.0840 15.26361033152384
MONITOR-2 (RS39S)       
1 57184U 23091U   26090.16185796  .00007096  00000+0  34994-3 0  9993
2 57184  97.5161 148.9593 0011971  32.0934 328.1026 15.18172896152115
SVYATOBOR 1 (RS60S)     
1 57187U 23091X   26090.15595630  .00013078  00000+0  52169-3 0  9998
2 57187  97.5170 153.5923 0009657  17.1133 343.0428 15.25271244152410
VIZARD-METEO (RS38S)    
1 57189U 23091Z   26090.17098064  .00020214  00000+0  62431-3 0  9994
2 57189  97.5159 158.2185 0006927   0.6242 359.5007 15.33553096152722
NANOZOND 1 (RS49S)      
1 57190U 23091AA  26090.15129836  .00474789  00000+0  17481-2 0  9990
2 57190  97.5010 172.2961 0005840 262.9192  97.1415 15.87079783153665
POLYTECH-UNIVERSE 3 (R*)
1 57191U 23091AB  26090.13330446  .00007418  00000+0  36300-3 0  9993
2 57191  97.5135 148.4369 0016734  45.9910 314.2700 15.18364170152101
UTMN 2 (RS27S)          
1 57203U 23091AP  26090.15748082  .00018643  00000+0  64068-3 0  9992
2 57203  97.5161 156.3868 0007954   6.8786 353.2561 15.30126924152607
KUZGTU 1 (RS47S)        
1 57217U 23091AV  26090.15352176  .00017250  00000+0  63091-3 0  9990
2 57217  97.5143 153.9178 0011373  20.6428 339.5269 15.28073651152456
SONATE-2                
1 59112U 24043Q   26090.19127925  .00048382  00000+0  76993-3 0  9995
2 59112  97.5431 236.1873 0007859 129.3829 230.8121 15.53112905115761
MESAT1                  
1 60209U 24125G   26090.07040740  .00064657  00000+0  93379-3 0  9991
2 60209  97.2422 306.1704 0012605 142.5661 217.6474 15.55656129 97399
OOV-CUBE (TUBSAT-30)    
1 60240U 24128F   26090.12807620  .00003123  00000+0  24359-3 0  9996
2 60240  61.9941 137.6832 0052764 116.7395 243.9109 15.02388439 94385
COLIBRI-S (RS67S)       
1 61746U 24199M   26090.13709108  .00025878  00000+0  55885-3 0  9998
2 61746  97.3124 323.4152 0008694 192.4435 167.6601 15.44472430125354
HORS 3 (RS81S)          
1 61753U 24199U   26090.15688382  .00038679  00000+0  69219-3 0  9997
2 61753  97.3097 324.6995 0006654 192.0524 168.0569 15.49866535125455
HORS 4 (RS82S)          
1 61754U 24199V   26090.18351583  .00051968  00000+0  82912-3 0  9992
2 61754  97.3067 325.5127 0006390 186.6029 173.5141 15.53036485125518
HORIZON (RS59S)         
1 61757U 24199Y   26089.98741241  .00233462  00000+0  13894-2 0  9998
2 61757  97.3013 329.8407 0006025 158.0640 202.0885 15.77288887125779
ARCTICSAT 1 (RS74S)     
1 61762U 24199AD  26090.13732752  .00145277  00000+0  11564-2 0  9998
2 61762  97.3039 329.3474 0006177 156.6759 203.4785 15.70733977125755
SIT-2086                
1 61764U 24199AF  26090.18040710  .00029841  00000+0  55589-3 0  9995
2 61764  97.3087 325.4234 0006907 180.5367 179.5878 15.48768630122340
HYPERVIEW 1G (RS66S)    
1 61772U 24199AP  26090.18790733  .00086460  00000+0  10153-2 0  9998
2 61772  97.3043 326.8631 0007732 185.6625 174.4547 15.61154534122453
ALTAIR (RS65S)          
1 61779U 24199AW  26090.14552421  .00011552  00000+0  33635-3 0  9992
2 61779  97.3150 320.0457 0012007 220.5122 139.5229 15.35494004125130
ASRTU-1 (AO-123)        
1 61781U 24199AY  26090.13854384  .00010665  00000+0  32075-3 0  9998
2 61781  97.3123 319.5269 0012900 223.4239 136.5989 15.34483175121952
TUSUR GO (RS78S)        
1 61782U 24199AZ  26090.17664601  .00273468  00000+0  15018-2 0  9993
2 61782  97.2960 329.0697 0006307 168.4600 191.6813 15.78990979122600
SAMSAT-IONOSPHERE (RS7*)
1 61784U 24199BB  26090.16305847  .00045627  00000+0  77403-3 0  9999
2 61784  97.3080 324.5388 0009364 197.5405 162.5525 15.51320647125447
